NORAD_CAT_ID,OBJECT_NAME,OBJECT_TYPE,EPOCH,MEAN_MOTION,ECCENTRICITY,INCLINATION,RA_OF_ASC_NODE,ARG_OF_PERICENTER,MEAN_ANOMALY,BSTAR,MEAN_MOTION_DOT,MEAN_MOTION_DDOT,TLE_LINE0,TLE_LINE1,TLE_LINE2,SEMIMAJOR_AXIS,PERIOD,APOGEE,PERIGEE,DECAYED
55436.0,STARLINK-5640,PAYLOAD,2023-10-27 20:33:23,14.98334177,0.0003118,69.9979,122.5361,269.6299,90.4503,4.2802e-05,4.18e-06,0.0,0 STARLINK-5640,1 55436U 23014AX  23300.85651881  .00000418  00000-0  42802-4 0  9996,2 55436  69.9979 122.5361 0003118 269.6299  90.4503 14.98334177 40732,6950.18,96.107,574.212,569.878,0.0
55436.0,STARLINK-5640,PAYLOAD,2023-10-27 22:09:31,14.98334161,0.0003118,69.9979,122.3678,269.7004,90.3798,4.2134e-05,4.1e-06,0.0,0 STARLINK-5640,1 55436U 23014AX  23300.92327869  .00000410  00000-0  42134-4 0  9990,2 55436  69.9979 122.3678 0003118 269.7004  90.3798 14.98334161 41689,6950.18,96.107,574.212,569.878,0.0
55436.0,STARLINK-5640,PAYLOAD,2023-10-28 14:10:52,14.98328344,0.0003116,69.998,120.6846,269.89,90.1902,2.9732e-05,2.62e-06,0.0,0 STARLINK-5640,1 55436U 23014AX  23301.59088229  .00000262  00000-0  29732-4 0  9992,2 55436  69.9980 120.6846 0003116 269.8900  90.1902 14.98328344 41785,6950.198,96.107,574.229,569.897,0.0
55436.0,STARLINK-5640,PAYLOAD,2023-10-28 18:59:16,14.9832987,0.000312,69.9981,120.1797,270.6723,89.4079,2.8175e-05,2.43e-06,0.0,0 STARLINK-5640,1 55436U 23014AX  23301.79116151  .00000243  00000-0  28175-4 0  9999,2 55436  69.9981 120.1797 0003120 270.6723  89.4079 14.98329870 40874,6950.193,96.107,574.227,569.89,0.0
55436.0,STARLINK-5640,PAYLOAD,2023-10-28 22:11:32,14.98330578,0.0003117,69.9981,119.843,270.6929,89.3873,3.5149e-05,3.26e-06,0.0,0 STARLINK-5640,1 55436U 23014AX  23301.92468094  .00000326  00000-0  35149-4 0  9991,2 55436  69.9981 119.8430 0003117 270.6929  89.3873 14.98330578 41832,6950.191,96.107,574.222,569.89,0.0
55436.0,STARLINK-5640,PAYLOAD,2023-10-29 14:12:52,14.9833287,0.0003089,69.9978,118.1597,270.8206,89.2599,3.7931e-05,3.6e-06,0.0,0 STARLINK-5640,1 55436U 23014AX  23302.59227907  .00000360  00000-0  37931-4 0  9990,2 55436  69.9978 118.1597 0003089 270.8206  89.2599 14.98332870 41934,6950.184,96.107,574.196,569.902,0.0
55436.0,STARLINK-5640,PAYLOAD,2023-10-29 19:01:17,14.98331568,0.0003004,69.9982,117.6544,271.2474,88.8341,3.5308e-05,3.28e-06,0.0,0 STARLINK-5640,1 55436U 23014AX  23302.79255981  .00000328  00000-0  35308-4 0  9995,2 55436  69.9982 117.6544 0003004 271.2474  88.8341 14.98331568 41027,6950.188,96.107,574.141,569.965,0.0
55436.0,STARLINK-5640,PAYLOAD,2023-10-29 22:13:33,14.98338871,0.0002793,69.9984,117.3178,269.9001,90.1838,-0.00017735,-2.209e-05,0.0,0 STARLINK-5640,1 55436U 23014AX  23302.92607987 -.00002209  00000-0 -17735-3 0  9992,2 55436  69.9984 117.3178 0002793 269.9001  90.1838 14.98338871 41989,6950.165,96.106,573.972,570.089,0.0
55436.0,STARLINK-5640,PAYLOAD,2023-10-30 20:39:26,14.98330317,0.0003202,69.9982,114.9611,273.0008,87.0785,6.5176e-05,6.85e-06,0.0,0 STARLINK-5640,1 55436U 23014AX  23303.86071995  .00000685  00000-0  65176-4 0  9997,2 55436  69.9982 114.9611 0003202 273.0008  87.0785 14.98330317 41186,6950.192,96.107,574.282,569.831,0.0
55436.0,STARLINK-5640,PAYLOAD,2023-10-31 14:16:54,14.98332596,0.0003124,69.9983,113.1098,271.9978,88.0823,3.7969e-05,3.6e-06,0.0,0 STARLINK-5640,1 55436U 23014AX  23304.59507932  .00000360  00000-0  37969-4 0  9992,2 55436  69.9983 113.1098 0003124 271.9978  88.0823 14.98332596 42235,6950.185,96.107,574.221,569.879,0.0
55436.0,STARLINK-5640,PAYLOAD,2023-10-31 20:41:27,14.98332784,0.0003125,69.9986,112.4366,272.4917,87.5884,4.9808e-05,5.01e-06,0.0,0 STARLINK-5640,1 55436U 23014AX  23304.86211856  .00000501  00000-0  49808-4 0  9991,2 55436  69.9986 112.4366 0003125 272.4917  87.5884 14.98332784 42272,6950.184,96.107,574.221,569.877,0.0
55436.0,STARLINK-5640,PAYLOAD,2023-11-01 12:42:48,14.98304535,0.0003183,69.9987,110.7534,270.8898,89.1896,0.00035548,4.148e-05,0.0,0 STARLINK-5640,1 55436U 23014AX  23305.52973132  .00004148  00000-0  35548-3 0  9993,2 55436  69.9987 110.7534 0003183 270.8898  89.1896 14.98304535 41436,6950.272,96.109,574.349,569.924,0.0
55436.0,STARLINK-5640,PAYLOAD,2023-11-01 14:18:56,14.98325424,0.0003087,69.9987,110.5851,271.1954,88.8851,-2.568e-05,-3.99e-06,0.0,0 STARLINK-5640,1 55436U 23014AX  23305.59648575 -.00000399  00000-0 -25680-4 0  9993,2 55436  69.9987 110.5851 0003087 271.1954  88.8851 14.98325424 42388,6950.207,96.107,574.218,569.927,0.0
55436.0,STARLINK-5640,PAYLOAD,2023-11-01 19:07:20,14.98325262,0.0003093,69.9989,110.0801,271.0903,88.9902,-2.2803e-05,-3.65e-06,0.0,0 STARLINK-5640,1 55436U 23014AX  23305.79676616 -.00000365  00000-0 -22803-4 0  9999,2 55436  69.9989 110.0801 0003093 271.0903  88.9902 14.98325262 41477,6950.208,96.107,574.222,569.923,0.0
55436.0,STARLINK-5640,PAYLOAD,2023-11-01 20:43:28,14.98325301,0.0003096,69.9989,109.9118,271.1636,88.9169,-2.2638e-05,-3.63e-06,0.0,0 STARLINK-5640,1 55436U 23014AX  23305.86352629 -.00000363  00000-0 -22638-4 0  9996,2 55436  69.9989 109.9118 0003096 271.1636  88.9169 14.98325301 42427,6950.207,96.107,574.224,569.921,0.0
55436.0,STARLINK-5640,PAYLOAD,2023-11-02 12:44:48,14.98331761,0.0003127,69.9988,108.2286,271.2129,88.8671,3.5354e-05,3.29e-06,0.0,0 STARLINK-5640,1 55436U 23014AX  23306.53112123  .00000329  00000-0  35354-4 0  9993,2 55436  69.9988 108.2286 0003127 271.2129  88.8671 14.98331761 41587,6950.187,96.107,574.226,569.879,0.0
55436.0,STARLINK-5640,PAYLOAD,2023-11-02 14:20:56,14.98331933,0.0003129,69.9989,108.0603,271.2128,88.8673,3.6777e-05,3.46e-06,0.0,0 STARLINK-5640,1 55436U 23014AX  23306.59788103  .00000346  00000-0  36777-4 0  9995,2 55436  69.9989 108.0603 0003129 271.2128  88.8673 14.98331933 42539,6950.187,96.107,574.227,569.877,0.0
55436.0,STARLINK-5640,PAYLOAD,2023-11-02 20:45:28,14.98334588,0.0003125,69.9989,107.3866,270.7902,89.2899,5.1676e-05,5.24e-06,0.0,0 STARLINK-5640,1 55436U 23014AX  23306.86491848  .00000524  00000-0  51676-4 0  9995,2 55436  69.9989 107.3866 0003125 270.7902  89.2899 14.98334588 42570,6950.179,96.107,574.216,569.872,0.0
55436.0,STARLINK-5640,PAYLOAD,2023-11-03 14:22:57,14.98329482,0.0003136,69.9989,105.5349,270.7002,89.3798,9.9358e-05,1.093e-05,0.0,0 STARLINK-5640,1 55436U 23014AX  23307.59928051  .00001093  00000-0  99358-4 0  9998,2 55436  69.9989 105.5349 0003136 270.7002  89.3798 14.98329482 42687,6950.194,96.107,574.239,569.88,0.0
55436.0,STARLINK-5640,PAYLOAD,2023-11-03 19:11:21,14.98332104,0.0003132,69.9989,105.0299,270.6684,89.4116,0.00011082,1.23e-05,0.0,0 STARLINK-5640,1 55436U 23014AX  23307.79955865  .00001230  00000-0  11082-3 0  9993,2 55436  69.9989 105.0299 0003132 270.6684  89.4116 14.98332104 41776,6950.186,96.107,574.228,569.875,0.0
55436.0,STARLINK-5640,PAYLOAD,2023-11-04 14:24:58,14.98333933,0.0003051,69.9992,103.0099,270.9814,89.0995,2.6624e-05,2.25e-06,0.0,0 STARLINK-5640,1 55436U 23014AX  23308.60067885  .00000225  00000-0  26624-4 0  9992,2 55436  69.9992 103.0099 0003051 270.9814  89.0995 14.98333933 42834,6950.181,96.107,574.166,569.925,0.0
55436.0,STARLINK-5640,PAYLOAD,2023-11-04 20:49:30,14.98337187,0.0003043,69.9992,102.3366,271.0943,88.9867,6.0812e-05,6.33e-06,0.0,0 STARLINK-5640,1 55436U 23014AX  23308.86771519  .00000633  00000-0  60812-4 0  9996,2 55436  69.9992 102.3366 0003043 271.0943  88.9867 14.98337187 41930,6950.171,96.107,574.151,569.921,0.0
55436.0,STARLINK-5640,PAYLOAD,2023-11-05 14:26:58,14.9833751,0.0003055,69.9993,100.4853,270.375,89.7059,8.6405e-05,9.38e-06,0.0,0 STARLINK-5640,1 55436U 23014AX  23309.60207156  .00000938  00000-0  86405-4 0  9994,2 55436  69.9993 100.4853 0003055 270.3750  89.7059 14.98337510 42980,6950.17,96.107,574.158,569.911,0.0
55436.0,STARLINK-5640,PAYLOAD,2023-11-05 19:15:22,14.983415,0.0002921,69.9991,99.9798,264.0576,96.025,0.00010251,1.131e-05,0.0,0 STARLINK-5640,1 55436U 23014AX  23309.80234687  .00001131  00000-0  10251-3 0  9996,2 55436  69.9991  99.9798 0002921 264.0576  96.0250 14.98341500 43018,6950.157,96.106,574.052,569.992,0.0
55436.0,STARLINK-5640,PAYLOAD,2023-11-06 03:16:02,14.98358888,0.0002937,69.9998,99.137,277.9162,82.1663,-0.00017756,-2.213e-05,0.0,0 STARLINK-5640,1 55436U 23014AX  23310.13613952 -.00002213  00000-0 -17756-3 0  9991,2 55436  69.9998  99.1370 0002937 277.9162  82.1663 14.98358888 42126,6950.104,96.105,574.01,569.927,0.0
55436.0,STARLINK-5640,PAYLOAD,2023-11-06 14:29:01,14.98304116,0.0002526,69.9995,97.9608,260.6554,99.432,-0.000323,-3.942e-05,0.0,0 STARLINK-5640,1 55436U 23014AX  23310.60349095 -.00003942  00000-0 -32300-3 0  9999,2 55436  69.9995  97.9608 0002526 260.6554  99.4320 14.98304116 43139,6950.273,96.109,573.894,570.382,0.0
55436.0,STARLINK-5640,PAYLOAD,2023-11-06 19:17:25,14.98319326,0.0002605,69.9995,97.4552,262.7755,97.3108,-0.00041808,-5.076e-05,0.0,0 STARLINK-5640,1 55436U 23014AX  23310.80376424 -.00005076  00000-0 -41808-3 0  9990,2 55436  69.9995  97.4552 0002605 262.7755  97.3108 14.98319326 42225,6950.226,96.108,573.901,570.28,0.0
55436.0,STARLINK-5640,PAYLOAD,2023-11-07 14:31:02,14.98315268,0.0002739,69.9993,95.4353,266.0162,94.0684,-0.00020211,-2.503e-05,0.0,0 STARLINK-5640,1 55436U 23014AX  23311.60488862 -.00002503  00000-0 -20211-3 0  9996,2 55436  69.9993  95.4353 0002739 266.0162  94.0684 14.98315268 43288,6950.238,96.108,574.007,570.2,0.0
55436.0,STARLINK-5640,PAYLOAD,2023-11-07 19:19:26,14.98319327,0.0002721,69.9996,94.9314,265.4345,94.6503,-0.00016397,-2.048e-05,0.0,0 STARLINK-5640,1 55436U 23014AX  23311.80516678 -.00002048  00000-0 -16397-3 0  9999,2 55436  69.9996  94.9314 0002721 265.4345  94.6503 14.98319327 42374,6950.226,96.108,573.982,570.2,0.0
55436.0,STARLINK-5640,PAYLOAD,2023-11-08 03:20:06,14.9832635,0.0002728,70.0002,94.0899,275.7634,84.3214,-0.0001023,-1.313e-05,0.0,0 STARLINK-5640,1 55436U 23014AX  23312.13896279 -.00001313  00000-0 -10230-3 0  9998,2 55436  70.0002  94.0899 0002728 275.7634  84.3214 14.98326350 42421,6950.204,96.107,573.965,570.173,0.0
